{
  "type": "FeatureCollection",
  "features": [
    {
      "type": "Feature",
      "properties": {
        "norad_id": 66909,
        "name": "SILVERSAT",
        "group": "stations",
        "lat": -50.69312691620171,
        "lon": 16.212381356740817,
        "alt_km": 410.09758088255876,
        "timestamp": "2025-12-22T22:44:19.685402+00:00",
        "meta_object_name": "SILVERSAT",
        "meta_object_id": "1998-067XV",
        "meta_epoch": "2025-12-22T12:16:28.422912",
        "meta_mean_motion": 15.52898333,
        "meta_eccentricity": 0.0003866,
        "meta_inclination": 51.6306,
        "meta_ra_of_asc_node": 93.7929,
        "meta_arg_of_pericenter": 288.2093,
        "meta_mean_anomaly": 71.8476,
        "meta_ephemeris_type": 0,
        "meta_classification_type": "U",
        "meta_norad_cat_id": 66909,
        "meta_element_set_no": 999,
        "meta_rev_at_epoch": 313,
        "meta_bstar": 0.0011325313,
        "meta_mean_motion_dot": 0.00071888,
        "meta_mean_motion_ddot": 0,
        "tle_line1": "1 66909U 98067XV  25356.51144008  .00071888  00000+0  11325-2 0  9999",
        "tle_line2": "2 66909  51.6306  93.7929 0003866 288.2093  71.8476 15.52898333  3134"
      },
      "geometry": {
        "type": "Point",
        "coordinates": [
          16.212381356740817,
          -50.69312691620171
        ]
      }
    },
    {
      "type": "Feature",
      "properties": {
        "norad_id": 66910,
        "name": "1998-067XW",
        "group": "stations",
        "lat": -47.838659168104485,
        "lon": 30.56036553231651,
        "alt_km": 410.31584250860305,
        "timestamp": "2025-12-22T22:44:19.685414+00:00",
        "meta_object_name": "1998-067XW",
        "meta_object_id": "1998-067XW",
        "meta_epoch": "2025-12-22T12:13:56.337312",
        "meta_mean_motion": 15.52855241,
        "meta_eccentricity": 0.00039884,
        "meta_inclination": 51.6304,
        "meta_ra_of_asc_node": 93.7808,
        "meta_arg_of_pericenter": 260.6768,
        "meta_mean_anomaly": 99.3771,
        "meta_ephemeris_type": 0,
        "meta_classification_type": "U",
        "meta_norad_cat_id": 66910,
        "meta_element_set_no": 999,
        "meta_rev_at_epoch": 313,
        "meta_bstar": 0.0010313397,
        "meta_mean_motion_dot": 0.00065266,
        "meta_mean_motion_ddot": 0,
        "tle_line1": "1 66910U 98067XW  25356.50967983  .00065266  00000+0  10313-2 0  9994",
        "tle_line2": "2 66910  51.6304  93.7808 0003988 260.6768  99.3771 15.52855241  3132"
      },
      "geometry": {
        "type": "Point",
        "coordinates": [
          30.56036553231651,
          -47.838659168104485
        ]
      }
    },
    {
      "type": "Feature",
      "properties": {
        "norad_id": 66911,
        "name": "1998-067XX",
        "group": "stations",
        "lat": -39.03690471016449,
        "lon": 51.59086086207332,
        "alt_km": 409.1035530031013,
        "timestamp": "2025-12-22T22:44:19.685425+00:00",
        "meta_object_name": "1998-067XX",
        "meta_object_id": "1998-067XX",
        "meta_epoch": "2025-12-22T12:09:35.951904",
        "meta_mean_motion": 15.53307333,
        "meta_eccentricity": 0.00037259,
        "meta_inclination": 51.6305,
        "meta_ra_of_asc_node": 93.7603,
        "meta_arg_of_pericenter": 265.4438,
        "meta_mean_anomaly": 94.6127,
        "meta_ephemeris_type": 0,
        "meta_classification_type": "U",
        "meta_norad_cat_id": 66911,
        "meta_element_set_no": 999,
        "meta_rev_at_epoch": 312,
        "meta_bstar": 0.0011547051,
        "meta_mean_motion_dot": 0.00074426,
        "meta_mean_motion_ddot": 0,
        "tle_line1": "1 66911U 98067XX  25356.50666611  .00074426  00000+0  11547-2 0  9997",
        "tle_line2": "2 66911  51.6305  93.7603 0003725 265.4438  94.6127 15.53307333  3120"
      },
      "geometry": {
        "type": "Point",
        "coordinates": [
          51.59086086207332,
          -39.03690471016449
        ]
      }
    },
    {
      "type": "Feature",
      "properties": {
        "norad_id": 66912,
        "name": "1998-067XY",
        "group": "stations",
        "lat": -45.19196202972959,
        "lon": -35.40757194226781,
        "alt_km": 412.84019750427706,
        "timestamp": "2025-12-22T22:44:19.685435+00:00",
        "meta_object_name": "1998-067XY",
        "meta_object_id": "1998-067XY",
        "meta_epoch": "2025-12-22T13:57:42.061248",
        "meta_mean_motion": 15.52056622,
        "meta_eccentricity": 0.00039127,
        "meta_inclination": 51.6324,
        "meta_ra_of_asc_node": 93.5129,
        "meta_arg_of_pericenter": 278.0711,
        "meta_mean_anomaly": 81.9835,
        "meta_ephemeris_type": 0,
        "meta_classification_type": "U",
        "meta_norad_cat_id": 66912,
        "meta_element_set_no": 999,
        "meta_rev_at_epoch": 313,
        "meta_bstar": 0.00086867978,
        "meta_mean_motion_dot": 0.0005325,
        "meta_mean_motion_ddot": 0,
        "tle_line1": "1 66912U 98067XY  25356.58173682  .00053250  00000+0  86868-3 0  9998",
        "tle_line2": "2 66912  51.6324  93.5129 0003912 278.0711  81.9835 15.52056622  3132"
      },
      "geometry": {
        "type": "Point",
        "coordinates": [
          -35.40757194226781,
          -45.19196202972959
        ]
      }
    }
  ]
}